{
  "type": "FeatureCollection",
  "features": [
    {
      "type": "Feature",
      "properties": {
        "norad_id": 37846,
        "name": "GSAT0101 (GALILEO-PFM)",
        "group": "galileo",
        "lat": 28.66631647679188,
        "lon": 145.94044339322875,
        "alt_km": 23227.52923304833,
        "timestamp": "2025-12-16T15:45:51.308653+00:00",
        "meta_object_name": "GSAT0101 (GALILEO-PFM)",
        "meta_object_id": "2011-060A",
        "meta_epoch": "2025-12-15T20:00:41.819904",
        "meta_mean_motion": 1.70475823,
        "meta_eccentricity": 0.00030775,
        "meta_inclination": 57.052,
        "meta_ra_of_asc_node": 346.7358,
        "meta_arg_of_pericenter": 316.7426,
        "meta_mean_anomaly": 43.2514,
        "meta_ephemeris_type": 0,
        "meta_classification_type": "U",
        "meta_norad_cat_id": 37846,
        "meta_element_set_no": 999,
        "meta_rev_at_epoch": 8799,
        "meta_bstar": 0,
        "meta_mean_motion_dot": -8.2e-07,
        "meta_mean_motion_ddot": 0,
        "tle_line1": "1 37846U 11060A   25349.83381736 -.00000082  00000+0  00000+0 0  9997",
        "tle_line2": "2 37846  57.0520 346.7358 0003077 316.7426  43.2514  1.70475823 87990"
      },
      "geometry": {
        "type": "Point",
        "coordinates": [
          145.94044339322875,
          28.66631647679188
        ]
      }
    },
    {
      "type": "Feature",
      "properties": {
        "norad_id": 37847,
        "name": "GSAT0102 (GALILEO-FM2)",
        "group": "galileo",
        "lat": -8.839639353374212,
        "lon": 172.50104309257313,
        "alt_km": 23230.892631210405,
        "timestamp": "2025-12-16T15:45:51.308675+00:00",
        "meta_object_name": "GSAT0102 (GALILEO-FM2)",
        "meta_object_id": "2011-060B",
        "meta_epoch": "2025-12-15T11:17:12.789024",
        "meta_mean_motion": 1.70476038,
        "meta_eccentricity": 0.0005041,
        "meta_inclination": 57.0528,
        "meta_ra_of_asc_node": 346.7461,
        "meta_arg_of_pericenter": 310.8731,
        "meta_mean_anomaly": 231.4829,
        "meta_ephemeris_type": 0,
        "meta_classification_type": "U",
        "meta_norad_cat_id": 37847,
        "meta_element_set_no": 999,
        "meta_rev_at_epoch": 8799,
        "meta_bstar": 0,
        "meta_mean_motion_dot": -8.3e-07,
        "meta_mean_motion_ddot": 0,
        "tle_line1": "1 37847U 11060B   25349.47028691 -.00000083  00000+0  00000+0 0  9997",
        "tle_line2": "2 37847  57.0528 346.7461 0005041 310.8731 231.4829  1.70476038 87990"
      },
      "geometry": {
        "type": "Point",
        "coordinates": [
          172.50104309257313,
          -8.839639353374212
        ]
      }
    },
    {
      "type": "Feature",
      "properties": {
        "norad_id": 38857,
        "name": "GSAT0103 (GALILEO-FM3)",
        "group": "galileo",
        "lat": 45.39535031632533,
        "lon": -117.20482357329239,
        "alt_km": 23223.589760611252,
        "timestamp": "2025-12-16T15:45:51.308689+00:00",
        "meta_object_name": "GSAT0103 (GALILEO-FM3)",
        "meta_object_id": "2012-055A",
        "meta_epoch": "2025-12-13T12:39:44.093088",
        "meta_mean_motion": 1.70473367,
        "meta_eccentricity": 0.00026827,
        "meta_inclination": 55.6929,
        "meta_ra_of_asc_node": 106.6448,
        "meta_arg_of_pericenter": 268.8486,
        "meta_mean_anomaly": 91.0883,
        "meta_ephemeris_type": 0,
        "meta_classification_type": "U",
        "meta_norad_cat_id": 38857,
        "meta_element_set_no": 999,
        "meta_rev_at_epoch": 8184,
        "meta_bstar": 0,
        "meta_mean_motion_dot": 1e-08,
        "meta_mean_motion_ddot": 0,
        "tle_line1": "1 38857U 12055A   25347.52759367  .00000001  00000+0  00000+0 0  9998",
        "tle_line2": "2 38857  55.6929 106.6448 0002682 268.8486  91.0883  1.70473367 81846"
      },
      "geometry": {
        "type": "Point",
        "coordinates": [
          -117.20482357329239,
          45.39535031632533
        ]
      }
    },
    {
      "type": "Feature",
      "properties": {
        "norad_id": 40128,
        "name": "GSAT0201 (GALILEO 5)",
        "group": "galileo",
        "lat": -15.958098382372265,
        "lon": -93.45893582040343,
        "alt_km": 26037.07483108465,
        "timestamp": "2025-12-16T15:45:51.308702+00:00",
        "meta_object_name": "GSAT0201 (GALILEO 5)",
        "meta_object_id": "2014-050A",
        "meta_epoch": "2025-12-14T00:08:14.916480",
        "meta_mean_motion": 1.85519648,
        "meta_eccentricity": 0.16480052,
        "meta_inclination": 49.0753,
        "meta_ra_of_asc_node": 281.012,
        "meta_arg_of_pericenter": 172.3262,
        "meta_mean_anomaly": 190.5827,
        "meta_ephemeris_type": 0,
        "meta_classification_type": "U",
        "meta_norad_cat_id": 40128,
        "meta_element_set_no": 999,
        "meta_rev_at_epoch": 7488,
        "meta_bstar": 0,
        "meta_mean_motion_dot": -9.9e-07,
        "meta_mean_motion_ddot": 0,
        "tle_line1": "1 40128U 14050A   25348.00572820 -.00000099  00000+0  00000+0 0  9998",
        "tle_line2": "2 40128  49.0753 281.0120 1648005 172.3262 190.5827  1.85519648 74882"
      },
      "geometry": {
        "type": "Point",
        "coordinates": [
          -93.45893582040343,
          -15.958098382372265
        ]
      }
    },
    {
      "type": "Feature",
      "properties": {
        "norad_id": 40129,
        "name": "GSAT0202 (GALILEO 6)",
        "group": "galileo",
        "lat": 16.633124776788605,
        "lon": 84.97768759001211,
        "alt_km": 17097.35529249248,
        "timestamp": "2025-12-16T15:45:51.308714+00:00",
        "meta_object_name": "GSAT0202 (GALILEO 6)",
        "meta_object_id": "2014-050B",
        "meta_epoch": "2025-12-14T06:17:14.023104",
        "meta_mean_motion": 1.85520414,
        "meta_eccentricity": 0.16487132,
        "meta_inclination": 49.0906,
        "meta_ra_of_asc_node": 280.0852,
        "meta_arg_of_pericenter": 173.0839,
        "meta_mean_anomaly": 189.5459,
        "meta_ephemeris_type": 0,
        "meta_classification_type": "U",
        "meta_norad_cat_id": 40129,
        "meta_element_set_no": 999,
        "meta_rev_at_epoch": 7705,
        "meta_bstar": 0,
        "meta_mean_motion_dot": -9.7e-07,
        "meta_mean_motion_ddot": 0,
        "tle_line1": "1 40129U 14050B   25348.26196786 -.00000097  00000+0  00000+0 0  9998",
        "tle_line2": "2 40129  49.0906 280.0852 1648713 173.0839 189.5459  1.85520414 77052"
      },
      "geometry": {
        "type": "Point",
        "coordinates": [
          84.97768759001211,
          16.633124776788605
        ]
      }
    },
    {
      "type": "Feature",
      "properties": {
        "norad_id": 40544,
        "name": "GSAT0203 (GALILEO 7)",
        "group": "galileo",
        "lat": -55.17425431882339,
        "lon": -83.44131449718485,
        "alt_km": 23208.860592782148,
        "timestamp": "2025-12-16T15:45:51.308725+00:00",
        "meta_object_name": "GSAT0203 (GALILEO 7)",
        "meta_object_id": "2015-017A",
        "meta_epoch": "2025-12-14T10:31:47.473824",
        "meta_mean_motion": 1.70475994,
        "meta_eccentricity": 0.00064885,
        "meta_inclination": 56.8458,
        "meta_ra_of_asc_node": 346.6335,
        "meta_arg_of_pericenter": 272.6107,
        "meta_mean_anomaly": 87.3336,
        "meta_ephemeris_type": 0,
        "meta_classification_type": "U",
        "meta_norad_cat_id": 40544,
        "meta_element_set_no": 999,
        "meta_rev_at_epoch": 6605,
        "meta_bstar": 0,
        "meta_mean_motion_dot": -8.5e-07,
        "meta_mean_motion_ddot": 0,
        "tle_line1": "1 40544U 15017A   25348.43874391 -.00000085  00000+0  00000+0 0  9994",
        "tle_line2": "2 40544  56.8458 346.6335 0006488 272.6107  87.3336  1.70475994 66059"
      },
      "geometry": {
        "type": "Point",
        "coordinates": [
          -83.44131449718485,
          -55.17425431882339
        ]
      }
    },
    {
      "type": "Feature",
      "properties": {
        "norad_id": 40545,
        "name": "GSAT0204 (GALILEO 8)",
        "group": "galileo",
        "lat": 43.66335378341986,
        "lon": 127.9949457385313,
        "alt_km": 23230.86949584679,
        "timestamp": "2025-12-16T15:45:51.308737+00:00",
        "meta_object_name": "GSAT0204 (GALILEO 8)",
        "meta_object_id": "2015-017B",
        "meta_epoch": "2025-12-14T16:39:40.338432",
        "meta_mean_motion": 1.70475755,
        "meta_eccentricity": 0.0006191,
        "meta_inclination": 56.8531,
        "meta_ra_of_asc_node": 346.6443,
        "meta_arg_of_pericenter": 264.523,
        "meta_mean_anomaly": 95.425,
        "meta_ephemeris_type": 0,
        "meta_classification_type": "U",
        "meta_norad_cat_id": 40545,
        "meta_element_set_no": 999,
        "meta_rev_at_epoch": 2910,
        "meta_bstar": 0,
        "meta_mean_motion_dot": -8.5e-07,
        "meta_mean_motion_ddot": 0,
        "tle_line1": "1 40545U 15017B   25348.69421688 -.00000085  00000+0  00000+0 0  9990",
        "tle_line2": "2 40545  56.8531 346.6443 0006191 264.5230  95.4250  1.70475755 29105"
      },
      "geometry": {
        "type": "Point",
        "coordinates": [
          127.9949457385313,
          43.66335378341986
        ]
      }
    }
  ]
}